CUTE-1 (CO-55)          
1 27844U 03031E   26166.98345551  .00000235  00000+0  12048-3 0  9990
2 27844  98.6736 175.5574 0009449 181.4906 178.6246 14.24335068191501
CUBESAT XI-IV (CO-57)   
1 27848U 03031J   26166.76045949  .00000197  00000+0  10563-3 0  9995
2 27848  98.6766 175.0510 0008932 201.3746 158.7060 14.23620108191170
CUBESAT XI-V            
1 28895U 05043F   26166.90778411  .00001212  00000+0  19838-3 0  9999
2 28895  98.2984 322.5028 0013554 204.9214 155.1340 14.72628612101567
CUTE-1.7+APD II (CO-65) 
1 32785U 08021C   26166.92295673  .00003906  00000+0  24808-3 0  9992
2 32785  97.8271 148.3152 0009930  43.0297 317.1706 15.09442079985009
CANX-2                  
1 32790U 08021H   26166.89259205  .00004088  00000+0  28757-3 0  9994
2 32790  97.8632 146.6449 0011445  54.1289 306.0998 15.05608769984616
SEEDS II (CO-66)        
1 32791U 08021J   26166.56872795  .00015199  00000+0  48345-3 0  9994
2 32791  97.7511 164.3889 0001297   9.9046 350.2220 15.32704207987043
SWISSCUBE               
1 35932U 09051B   26166.73189433  .00000837  00000+0  17488-3 0  9994
2 35932  98.4037  74.5948 0005872 208.1158 151.9727 14.62479266888945
BEESAT-1                
1 35933U 09051C   26166.67211925  .00000696  00000+0  14948-3 0  9991
2 35933  98.3966  74.1727 0004143 222.7954 137.2924 14.61718328888965
ITUPSAT1                
1 35935U 09051E   26166.73019578  .00000641  00000+0  14235-3 0  9999
2 35935  98.4050  73.4251 0006212 239.3695 120.6892 14.60438795888529
TISAT 1                 
1 36799U 10035E   26166.81052109  .00016585  00000+0  54469-3 0  9995
2 36799  98.0713 113.2374 0001201 169.6486 190.4779 15.31663542867496
AEROCUBE 4.5A           
1 38767U 12048K   26166.97135025  .00410252  74313-4  10174-2 0  9990
2 38767  64.6243  31.3351 0019594 223.4007 136.5613 15.95272059372462
STRAND-1                
1 39090U 13009E   26166.73319392  .00000220  00000+0  88281-4 0  9996
2 39090  98.3921 347.0034 0007655 230.2280 129.8233 14.37162534696854
BRITE-AUSTRIA           
1 39091U 13009F   26166.74544157  .00000140  00000+0  62283-4 0  9992
2 39091  98.3994 346.2168 0009094 241.3602 118.6671 14.36541598696845
NEE-01 PEGASO           
1 39151U 13018B   26166.38986018  .00002027  00000+0  19741-3 0  9991
2 39151  98.1214 310.4804 0012937 165.1710 194.9891 14.93651825710439
POPACS 2                
1 39269U 13055E   26166.36468816  .00010853  00000+0  18376-3 0  9990
2 39269  80.9902 146.2784 0416885 199.6373 158.8380 14.91171919662944
POPACS 3                
1 39270U 13055F   26166.47030025  .00008012  00000+0  18804-3 0  9991
2 39270  81.0017 231.0485 0552307  75.2193 290.9504 14.56095763638307
ZACUBE-1 (TSHEPISOSAT)  
1 39417U 13066B   26166.94086461  .00002673  00000+0  20978-3 0  9995
2 39417  97.8082 129.2712 0040667 252.0345 107.6443 15.01182960680549
WNISAT-1                
1 39423U 13066H   26166.97582686  .00000726  00000+0  14100-3 0  9992
2 39423  97.7200 316.2181 0161914 235.4345 123.1488 14.58060425666558
TRITON-1                
1 39427U 13066M   26167.01252432  .00001289  00000+0  15992-3 0  9990
2 39427  97.8256  76.8471 0088445 237.8143 121.4470 14.81702130673916
GOMX-1                  
1 39430U 13066Q   26166.96028403  .00002046  00000+0  31070-3 0  9993
2 39430  97.6478   7.5008 0130168  81.4294 280.1638 14.69458242669733
CUBEBUG-2 (LO-74)       
1 39440U 13066AA  26166.85743361  .00004009  00000+0  37158-3 0  9993
2 39440  97.8907 115.8299 0058470  33.3376 327.1504 14.93752168676799
NEE-02 KRYSAOR          
1 39441U 13066AB  26166.52650132  .00002097  00000+0  23305-3 0  9995
2 39441  97.8894 105.7531 0067691  75.5305 285.3408 14.86612129675956
FUNCUBE-1 (AO-73)       
1 39444U 13066AE  26166.86333262  .00005834  00000+0  36316-3 0  9995
2 39444  97.8273 138.2815 0035539 205.5766 154.3706 15.09476684679464
UWE-3                   
1 39446U 13066AG  26166.41095872  .00003615  00000+0  31229-3 0  9993
2 39446  97.8693 122.4726 0047855 327.0614  32.7628 14.97011844677317
BRITE-CA1 (TORONTO)     
1 40020U 14033L   26166.88272711  .00000607  00000+0  99044-4 0  9996
2 40020  97.9737 295.8347 0077232 281.2710  77.9825 14.72675112642028
DUCHIFAT-1              
1 40021U 14033M   26166.42257015  .00087303  00000+0  90897-3 0  9991
2 40021  98.0462 225.3358 0003280 119.3803 240.7782 15.64281009655477
NANOSATC-BR1            
1 40024U 14033Q   26166.89863353  .00014495  00000+0  48001-3 0  9995
2 40024  98.0717 199.1722 0004298 166.4410 193.6946 15.31423039653788
QB50P1                  
1 40025U 14033R   26166.83194276  .00006933  00000+0  34204-3 0  9999
2 40025  98.0960 177.8828 0007697 220.5150 139.5510 15.18243787652823
QB50P2                  
1 40032U 14033Y   26166.97739536  .00005468  00000+0  29540-3 0  9995
2 40032  98.0746 163.7823 0007902 166.7824 193.3615 15.15145794652482
PERSEUS-M2              
1 40037U 14033AD  26166.92569591  .00001329  00000+0  12545-3 0  9996
2 40037  97.9957 117.4407 0010893 308.5885  51.4358 14.95505552650596
